POPACS 1                
1 39268U 13055D   22200.25628319  .00016460  00000+0  41143-3 0  9996
2 39268  80.9948 205.2761 0569762 104.4401 262.0695 14.51163172457917
POPACS 2                
1 39269U 13055E   22200.48266902  .00007264  00000+0  20161-3 0  9997
2 39269  81.0114 262.7763 0644432 253.4355  99.5141 14.33291164455994
POPACS 3                
1 39270U 13055F   22200.52858717  .00005749  00000+0  17418-3 0  9992
2 39270  81.0148 296.1721 0687614 348.0733  10.4831 14.22237707433195
ZACUBE-1 (TSHEPISOSAT)  
1 39417U 13066B   22200.36216413  .00001926  00000+0  24016-3 0  9995
2 39417  97.6378 170.4231 0056237 300.9993  58.5704 14.82448655467856
WNISAT-1                
1 39423U 13066H   22200.37424944  .00000767  00000+0  15917-3 0  9995
2 39423  97.7508  79.4954 0175673  38.3788 322.9756 14.53519042459087
TRITON-1                
1 39427U 13066M   22200.55320839  .00001200  00000+0  19392-3 0  9991
2 39427  97.8132 134.9553 0112094 161.3722 199.1638 14.69029487463680
DELFI-N3XT              
1 39428U 13066N   22200.26307690  .00001779  00000+0  27953-3 0  9993
2 39428  97.8143 133.2573 0117013 175.4326 184.7977 14.69280441463202
GOMX-1                  
1 39430U 13066Q   22200.38632633  .00001357  00000+0  25036-3 0  9999
2 39430  97.8085 105.7610 0147990 304.6321  54.0998 14.60265692460957
CUBEBUG-2 (LO-74)       
1 39440U 13066AA  22200.36305200  .00002371  00000+0  32568-3 0  9990
2 39440  97.7273 156.5814 0079530  29.0153 331.5444 14.77099885464995
NEE-02 KRYSAOR          
1 39441U 13066AB  22200.32509253  .00001599  00000+0  22820-3 0  9992
2 39441  97.7386 153.7132 0081673  42.6641 318.0873 14.75807314464737
FUNCUBE-1 (AO-73)       
1 39444U 13066AE  22200.35538797  .00002310  00000+0  27956-3 0  9990
2 39444  97.6257 172.8264 0054925 288.7273  70.7986 14.83550991466259
UWE-3                   
1 39446U 13066AG  22200.32956773  .00002251  00000+0  29519-3 0  9998
2 39446  97.6868 163.0192 0068222 346.7943  13.1481 14.79668414465171
AEROCUBE 5A             
1 39465U 13072D   22200.51019191  .00050182  00000+0  28462-2 0  9992
2 39465 120.4861  72.2739 0195003 314.3867  44.1375 14.97868341154422
AEROCUBE 5B             
1 39466U 13072E   22200.33143518  .00130647  00000+0  43807-2 0  9999
2 39466 120.4559 161.8420 0134586 336.9712  22.5372 15.21763901155575
BRITE-CA1 (TORONTO)     
1 40020U 14033L   22200.67846397  .00000912  00000+0  16182-3 0  9995
2 40020  97.7818 358.0034 0087320 159.8405 200.6285 14.67077321432496
DUCHIFAT-1              
1 40021U 14033M   22200.57794331  .00003512  00000+0  34276-3 0  9998
2 40021  98.0131 151.3676 0011146 299.0100  61.0001 14.93051350439492
NANOSATC-BR1            
1 40024U 14033Q   22200.27269924  .00003284  00000+0  33059-3 0  9997
2 40024  97.9861 144.2588 0010579 308.1657  51.8608 14.91869345438728
QB50P1                  
1 40025U 14033R   22200.54677450  .00002411  00000+0  25181-3 0  9993
2 40025  97.9602 138.1993 0011138 317.5122  42.5233 14.90623769438545
QB50P2                  
1 40032U 14033Y   22200.11462221  .00002278  00000+0  24174-3 0  9994
2 40032  97.9375 133.0255 0010535 317.1834  42.8562 14.90039959438338
PERSEUS-M2              
1 40037U 14033AD  22200.26693563  .00000968  00000+0  11369-3 0  9996
2 40037  97.8955 122.3103 0013739 339.5257  20.5406 14.87150940437851
PERSEUS-M1              
1 40039U 14033AF  22200.53927650  .00000988  00000+0  11708-3 0  9994
2 40039  97.8855 120.2854 0013533 337.7543  22.3084 14.86759770437770
POLYITAN-1              
1 40042U 14033AJ  22200.56037662  .00003276  00000+0  33959-3 0  9991
2 40042  97.9707 139.4470 0013105 308.0185  51.9849 14.90668930438944
TIGRISAT                
1 40043U 14033AK  22200.51803015  .00001125  00000+0  16929-3 0  9999
2 40043  97.6565  28.0472 0060430  53.5072 307.1684 14.75068715434654
AEROCUBE 6A             
1 40045U 14033AM  22200.52519577  .00001183  00000+0  17241-3 0  9991
2 40045  97.6657  36.9241 0057984  41.5044 319.0548 14.76459582434519
AEROCUBE 6B             
1 40046U 14033AN  22200.49480279  .00002248  00000+0  31879-3 0  9990
2 40046  97.6574  35.3420 0056810  39.8218 320.7140 14.76831663434511
UKUBE-1                 
1 40074U 14037F   22200.41509179  .00001919  00000+0  22923-3 0  9992
2 40074  98.3779  82.7519 0003893 170.7295 189.3984 14.85499290434819
BRITE-PL2 (HEWELIUSZ)   
1 40119U 14049B   22200.54870819  .00001195  00000+0  14542-3 0  9995
2 40119  97.8848 295.8466 0018297 134.1101 226.1623 14.85188843428779
FIREBIRD 4              
1 40378U 15003C   22200.43170081  .00018767  00000+0  54830-3 0  9992
2 40378  99.0966  72.7093 0097247 276.4481  82.5689 15.30728506413319
GRIFEX                  
1 40379U 15003D   22199.84722688  .00009180  00000+0  32220-3 0  9999
2 40379  99.1085  57.5648 0113653 322.3493  36.9822 15.23732248412405
CP10 (EXOCUBE)          
1 40380U 15003E   22200.34887773  .00007476  00000+0  28587-3 0  9993
2 40380  99.1184  50.8455 0122299 345.2647  14.5029 15.20237567412008
TIANWANG 1A (TW-1A)     
1 40928U 15051D   22200.55033240  .00048592  00000+0  55139-3 0  9996
2 40928  97.0359 222.9683 0004510 253.7324 257.2403 15.62212457383244
EXACTVIEW 9             
1 40936U 15052G   22200.51605825  .00001734  00000+0  15046-3 0  9996
2 40936   6.0036 304.7245 0010843 251.8616 108.0330 14.77207132368005
AEROCUBE 5C             
1 40965U 15058B   22200.43854752  .00002749  00000+0  31768-3 0  9996
2 40965  64.7795 354.2898 0188925 190.0092 169.7231 14.75698911153680
AEROCUBE 7              
1 40966U 15058C   22200.42500259  .00003569  00000+0  40309-3 0  9998
2 40966  64.7798 351.4438 0186939 189.6808 170.0678 14.76272574153689
ATHENOXAT 1             
1 41168U 15077C   22200.40743843  .00014985  00000+0  60810-3 0  9993
2 41168  14.9893 213.4527 0008403 328.9339  69.9226 15.21682454365187
GALASSIA                
1 41170U 15077E   22199.68257657  .00011425  00000+0  46720-3 0  9996
2 41170  14.9871 209.8939 0010507 346.9573  13.0477 15.20873970364989
VELOX-II                
1 41171U 15077F   22200.55984004  .00010004  00000+0  46660-3 0  9994
2 41171  14.9910 278.3281 0007741 195.7993 164.2087 15.16170653364492
HORYU-4                 
1 41340U 16012D   22200.57315903  .00003976  00000+0  27815-3 0  9991
2 41340  31.0037 153.9709 0013235 161.1646 198.9482 15.03485424352569
E-ST@R-II               
1 41459U 16025D   22200.54949443  .00017195  00000+0  72928-3 0  9998
2 41459  98.1887   8.0944 0144328 160.0657 200.6323 15.14133104342354
AAUSAT 4                
1 41460U 16025E   22200.73474659  .00027910  00000+0  10343-2 0  9991
2 41460  98.1808  14.7933 0124211 134.6612 226.4840 15.20558120342848
BEESAT-4                
1 41619U 16040W   22200.39234011  .00016576  00000+0  53922-3 0  9999
2 41619  97.2142 250.1799 0009131  14.6059 345.5445 15.31910441325616
RAVAN                   
1 41849U 16067B   22200.18098091  .00003697  00000+0  29496-3 0  9995
2 41849  98.0049 338.0882 0013427 233.9655 126.0324 15.00895443310753
CELTEE 1                
1 41850U 16067C   22199.09608368  .00002110  00000+0  18135-3 0  9995
2 41850  98.0005 331.8985 0008191 230.7397 129.3099 14.98556812310342
OPTICUBE 04             
1 41851U 16067D   22200.42684899  .00001400  00000+0  12431-3 0  9993
2 41851  97.9995 332.2760 0008033 229.5622 130.4900 14.97851383310497
AEROCUBE 8D             
1 41852U 16067E   22200.08932247  .00002440  00000+0  20928-3 0  9994
2 41852  97.9982 331.9603 0008849 232.2644 127.7776 14.98474712310438
AEROCUBE 8C             
1 41853U 16067F   22200.60525231  .00002104  00000+0  18129-3 0  9991
2 41853  97.9999 332.3096 0008140 230.9572 129.0926 14.98460854310509
PROMETHEUS 2-1          
1 41854U 16067G   22200.34837175  .00003716  00000+0  30614-3 0  9999
2 41854  97.9989 333.1815 0010640 240.7672 119.2487 14.99676232310520
PROMETHEUS 2-3          
1 41855U 16067H   22200.60738706  .00004005  00000+0  32934-3 0  9998
2 41855  98.0029 333.5296 0008585 244.2368 115.7969 14.99720605310565
INS-1B                  
1 41954U 17008G   22200.44823037  .00015979  00000+0  51484-3 0  9991
2 41954  97.2551 259.6823 0009280 117.3738 242.8449 15.32226030301649
BGUSAT                  
1 41999U 17008BD  22200.47020164  .00045438  00000+0  10418-2 0  9997
2 41999  97.2787 270.7916 0007058 110.2621 249.9386 15.42586033301573
DIDO-2                  
1 42000U 17008BE  22200.43179935  .00008334  00000+0  29887-3 0  9993
2 42000  97.2542 258.9213 0008706 135.9245 224.2691 15.28921775300957
PEASSS                  
1 42015U 17008BV  22200.14361629  .00012607  00000+0  40683-3 0  9995
2 42015  97.2609 262.6259 0006739 130.7285 229.4543 15.32250735301624
AL-FARABI 1             
1 42016U 17008BW  22200.42843076  .00019444  00000+0  56680-3 0  9998
2 42016  97.2673 266.0785 0006250 125.1075 235.0756 15.35390204301955
NAYIF-1 (EO-88)         
1 42017U 17008BX  22200.44052127  .00019696  00000+0  57137-3 0  9997
2 42017  97.2666 266.1055 0006503 124.5055 235.6803 15.35538989301987
UCLSAT                  
1 42765U 17036A   22200.36881975  .00013439  00000+0  45844-3 0  9991
2 42765  97.1949 242.0427 0008690 198.3030 161.7900 15.30425964282738
LITUANICASAT-2          
1 42768U 17036D   22200.38383712  .00031700  00000+0  87430-3 0  9990
2 42768  97.2031 245.0751 0010683 180.3000 179.8240 15.36986557282159
AALTO-1                 
1 42775U 17036L   22200.37144849  .00008066  00000+0  31581-3 0  9998
2 42775  97.1953 236.9271 0011650 205.1737 154.8935 15.25994907281646
URSA MAIOR              
1 42776U 17036M   22200.34037775  .00008503  00000+0  32687-3 0  9999
2 42776  97.1966 237.6574 0011333 203.6699 156.4020 15.26592714281670
COMPASS 2               
1 42777U 17036N   22200.80323272  .00023983  00000+0  73974-3 0  9994
2 42777  97.2022 244.6998 0009531 183.2311 176.8872 15.33534794282106
